{"type" : "FeatureCollection", "features" : [{"type" : "Feature", "id" : "06bfdd08-9a8e-47fa-bd50-f44761cb82d0", "geometry" : {"type":"Polygon","coordinates":[[[7.6591502,45.0621875],[7.6592682,45.0623523],[7.6593869,45.0623081],[7.659265,45.0621449],[7.6591502,45.0621875]]]}, "properties" : {"pv": null, "lod": 0, "area": 213.04801079094847, "type": "non-residential", "height": 12.07, "volume": null, "z_value": 249.04, "fmu_file": "frassinetto", "n_family": 0, "n_people": 0, "const_year": null, "created_at": "2026-09-15T15:10:16.597207+00:00", "filter_res": null, "project_id": "0c3dba2f-4999-4586-a5ad-84188e1bb1fe", "updated_at": "2026-09-15T15:10:21.540935+00:00", "building_id": "06bfdd08-9a8e-47fa-bd50-f44761cb82d0", "scenario_id": "0c3dba2f-4999-4586-a5ad-84188e1bb1fe", "tabula_type": null, "const_tabula": null, "building_name": "BUI-0010", "number_of_floors": null, "const_period_census": null, "envelope_efficiency": "high"}}, {"type" : "Feature", "id" : "08dc9f4a-8d4e-4299-a89d-985619ac0d64", "geometry" : {"type":"Polygon","coordinates":[[[7.6574112,45.0620462],[7.6566719,45.0623306],[7.6565582,45.0621832],[7.6572975,45.0618987],[7.6574112,45.0620462]]]}, "properties" : {"pv": null, "lod": 0, "area": 1236.6040014017838, "type": "non-residential", "height": 3, "volume": null, "z_value": 250.27, "fmu_file": "frassinetto", "n_family": 0, "n_people": 0, "const_year": null, "created_at": "2026-09-15T15:10:17.278542+00:00", "filter_res": null, "project_id": "0c3dba2f-4999-4586-a5ad-84188e1bb1fe", "updated_at": "2026-09-15T15:10:21.583293+00:00", "building_id": "08dc9f4a-8d4e-4299-a89d-985619ac0d64", "scenario_id": "0c3dba2f-4999-4586-a5ad-84188e1bb1fe", "tabula_type": null, "const_tabula": null, "building_name": "BUI-0067", "number_of_floors": null, "const_period_census": null, "envelope_efficiency": "medium"}}, {"type" : "Feature", "id" : "00099a03-bf89-43c9-9c48-82cad41efd56", "geometry" : {"type":"Polygon","coordinates":[[[7.6609686,45.0624278],[7.6614066,45.0622774],[7.6615367,45.0622325],[7.6616787,45.0624433],[7.6617191,45.0624995],[7.6611581,45.0626964],[7.6611465,45.06268],[7.661112,45.0626311],[7.6609686,45.0624278]]]}, "properties" : {"pv": null, "lod": 0, "area": 1638.903482104029, "type": "non-residential", "height": 8.07, "volume": null, "z_value": 247.71, "fmu_file": "frassinetto", "n_family": 0, "n_people": 0, "const_year": null, "created_at": "2026-09-15T15:10:17.345878+00:00", "filter_res": null, "project_id": "0c3dba2f-4999-4586-a5ad-84188e1bb1fe", "updated_at": "2026-09-15T15:10:21.586917+00:00", "building_id": "00099a03-bf89-43c9-9c48-82cad41efd56", "scenario_id": "0c3dba2f-4999-4586-a5ad-84188e1bb1fe", "tabula_type": null, "const_tabula": null, "building_name": "BUI-0072", "number_of_floors": null, "const_period_census": null, "envelope_efficiency": "high"}}, {"type" : "Feature", "id" : "0101627e-9b7a-420e-a158-8900c2f0e117", "geometry" : {"type":"Polygon","coordinates":[[[7.6589256,45.0614198],[7.6588686,45.0614424],[7.6588861,45.061468],[7.6591395,45.0613814],[7.6591236,45.0613576],[7.6591688,45.0613405],[7.6592154,45.0613963],[7.6588453,45.0615496],[7.6587554,45.0614235],[7.6588901,45.0613729],[7.6589256,45.0614198]]]}, "properties" : {"pv": null, "lod": 0, "area": 288.6132945297569, "type": "non-residential", "height": 13.11, "volume": null, "z_value": 248.93, "fmu_file": "frassinetto", "n_family": 0, "n_people": 0, "const_year": null, "created_at": "2026-09-15T15:10:17.247273+00:00", "filter_res": null, "project_id": "0c3dba2f-4999-4586-a5ad-84188e1bb1fe", "updated_at": "2026-09-15T15:10:21.579662+00:00", "building_id": "0101627e-9b7a-420e-a158-8900c2f0e117", "scenario_id": "0c3dba2f-4999-4586-a5ad-84188e1bb1fe", "tabula_type": null, "const_tabula": null, "building_name": "BUI-0062", "number_of_floors": null, "const_period_census": null, "envelope_efficiency": "medium"}}, {"type" : "Feature", "id" : "0d92ba2b-e202-4359-a896-c4beb599ed64", "geometry" : {"type":"Polygon","coordinates":[[[7.6613479,45.0635239],[7.6614268,45.063634],[7.6613349,45.0636668],[7.6608952,45.063819],[7.6608142,45.0638476],[7.6607383,45.0637404],[7.660814,45.0637136],[7.6611582,45.0635901],[7.6612681,45.0635519],[7.6613479,45.0635239]]]}, "properties" : {"pv": null, "lod": 0, "area": 729.8566730536875, "type": "non-residential", "height": 15.82, "volume": null, "z_value": 248.23, "fmu_file": "frassinetto", "n_family": 0, "n_people": 0, "const_year": null, "created_at": "2026-09-15T15:10:17.058083+00:00", "filter_res": null, "project_id": "0c3dba2f-4999-4586-a5ad-84188e1bb1fe", "updated_at": "2026-09-15T15:10:21.566156+00:00", "building_id": "0d92ba2b-e202-4359-a896-c4beb599ed64", "scenario_id": "0c3dba2f-4999-4586-a5ad-84188e1bb1fe", "tabula_type": null, "const_tabula": null, "building_name": "BUI-0044", "number_of_floors": null, "const_period_census": null, "envelope_efficiency": "medium"}}, {"type" : "Feature", "id" : "0fd2b74a-f555-4871-8e7d-305d3653185e", "geometry" : {"type":"Polygon","coordinates":[[[7.6581906,45.0650852],[7.6582651,45.0650592],[7.6582342,45.0650151],[7.6582336,45.0650143],[7.6582192,45.064993],[7.6582154,45.0649876],[7.658205,45.0649738],[7.6581817,45.0649819],[7.6581893,45.0649928],[7.6581758,45.0649975],[7.6581621,45.0650023],[7.6581546,45.0649916],[7.6581306,45.065],[7.6581404,45.0650138],[7.658144,45.065019],[7.658159,45.0650403],[7.6581599,45.0650414],[7.6581906,45.0650852]]]}, "properties" : {"pv": null, "lod": 0, "area": 66.2144951099674, "type": "non-residential", "height": 9.69, "volume": null, "z_value": 247.85, "fmu_file": "frassinetto", "n_family": 0, "n_people": 0, "const_year": null, "created_at": "2026-09-15T15:10:16.614365+00:00", "filter_res": null, "project_id": "0c3dba2f-4999-4586-a5ad-84188e1bb1fe", "updated_at": "2026-09-15T15:10:21.542491+00:00", "building_id": "0fd2b74a-f555-4871-8e7d-305d3653185e", "scenario_id": "0c3dba2f-4999-4586-a5ad-84188e1bb1fe", "tabula_type": null, "const_tabula": null, "building_name": "BUI-0012", "number_of_floors": null, "const_period_census": null, "envelope_efficiency": "low"}}, {"type" : "Feature", "id" : "1576c593-ef80-4b51-82ee-c6668b8b5b2a", "geometry" : {"type":"Polygon","coordinates":[[[7.6609901,45.0630615],[7.661002,45.0630774],[7.6610206,45.0631035],[7.6610709,45.0631741],[7.660972,45.0632093],[7.6605594,45.0633531],[7.6604831,45.0633796],[7.6604141,45.0632786],[7.6609901,45.0630615]]]}, "properties" : {"pv": null, "lod": 0, "area": 684.140481053294, "type": "non-residential", "height": 15.55, "volume": null, "z_value": 248.75, "fmu_file": "frassinetto", "n_family": 0, "n_people": 0, "const_year": null, "created_at": "2026-09-15T15:10:16.813145+00:00", "filter_res": null, "project_id": "0c3dba2f-4999-4586-a5ad-84188e1bb1fe", "updated_at": "2026-09-15T15:10:21.54974+00:00", "building_id": "1576c593-ef80-4b51-82ee-c6668b8b5b2a", "scenario_id": "0c3dba2f-4999-4586-a5ad-84188e1bb1fe", "tabula_type": null, "const_tabula": null, "building_name": "BUI-0022", "number_of_floors": null, "const_period_census": null, "envelope_efficiency": "medium"}}, {"type" : "Feature", "id" : "2017872a-971b-4ea6-b1fa-595d24bf47e4", "geometry" : {"type":"Polygon","coordinates":[[[7.6614066,45.0622774],[7.6609686,45.0624278],[7.6608535,45.0622645],[7.6609677,45.0622238],[7.6609778,45.0622379],[7.6609874,45.0622514],[7.6613067,45.0621375],[7.6614066,45.0622774]]]}, "properties" : {"pv": null, "lod": 0, "area": 690.3031316040942, "type": "non-residential", "height": 4.36, "volume": null, "z_value": 247.63, "fmu_file": "frassinetto", "n_family": 0, "n_people": 0, "const_year": null, "created_at": "2026-09-15T15:10:16.773589+00:00", "filter_res": null, "project_id": "0c3dba2f-4999-4586-a5ad-84188e1bb1fe", "updated_at": "2026-09-15T15:10:21.547571+00:00", "building_id": "2017872a-971b-4ea6-b1fa-595d24bf47e4", "scenario_id": "0c3dba2f-4999-4586-a5ad-84188e1bb1fe", "tabula_type": null, "const_tabula": null, "building_name": "BUI-0019", "number_of_floors": null, "const_period_census": null, "envelope_efficiency": "low"}}, {"type" : "Feature", "id" : "283a0a48-558e-4235-b920-0a608ae5e371", "geometry" : {"type":"Polygon","coordinates":[[[7.6604618,45.0618275],[7.660137,45.0619412],[7.6600455,45.0619719],[7.6599869,45.0618858],[7.6604012,45.061738],[7.6604618,45.0618275]]]}, "properties" : {"pv": null, "lod": 0, "area": 397.0652362053329, "type": "non-residential", "height": 21.38, "volume": null, "z_value": 248.09, "fmu_file": "frassinetto", "n_family": 0, "n_people": 0, "const_year": null, "created_at": "2026-09-15T15:10:16.914086+00:00", "filter_res": null, "project_id": "0c3dba2f-4999-4586-a5ad-84188e1bb1fe", "updated_at": "2026-09-15T15:10:21.556277+00:00", "building_id": "283a0a48-558e-4235-b920-0a608ae5e371", "scenario_id": "0c3dba2f-4999-4586-a5ad-84188e1bb1fe", "tabula_type": null, "const_tabula": null, "building_name": "BUI-0031", "number_of_floors": null, "const_period_census": null, "envelope_efficiency": "medium"}}, {"type" : "Feature", "id" : "2995ebeb-813c-4d44-9ba3-668205da605f", "geometry" : {"type":"Polygon","coordinates":[[[7.6614728,45.0636179],[7.6613911,45.0635018],[7.6616024,45.0634278],[7.6615158,45.0633063],[7.661673,45.0632501],[7.6618392,45.0634872],[7.6614728,45.0636179]]]}, "properties" : {"pv": null, "lod": 0, "area": 671.5616333632041, "type": "non-residential", "height": 16.89, "volume": null, "z_value": 247.82, "fmu_file": "frassinetto", "n_family": 0, "n_people": 0, "const_year": null, "created_at": "2026-09-15T15:10:16.857213+00:00", "filter_res": null, "project_id": "0c3dba2f-4999-4586-a5ad-84188e1bb1fe", "updated_at": "2026-09-15T15:10:21.551905+00:00", "building_id": "2995ebeb-813c-4d44-9ba3-668205da605f", "scenario_id": "0c3dba2f-4999-4586-a5ad-84188e1bb1fe", "tabula_type": null, "const_tabula": null, "building_name": "BUI-0025", "number_of_floors": null, "const_period_census": null, "envelope_efficiency": "medium"}}, {"type" : "Feature", "id" : "2ae1d9e1-ffa7-42f0-b35f-776e39307060", "geometry" : {"type":"Polygon","coordinates":[[[7.6608196,45.0628258],[7.6607663,45.0627502],[7.6607051,45.062774],[7.6606309,45.0628004],[7.6603491,45.0629013],[7.6604192,45.0629999],[7.6608376,45.0628493],[7.6608196,45.0628258]]]}, "properties" : {"pv": null, "lod": 0, "area": 451.3519275526404, "type": "non-residential", "height": 20.59, "volume": null, "z_value": 248.71, "fmu_file": "frassinetto", "n_family": 0, "n_people": 0, "const_year": null, "created_at": "2026-09-15T15:10:16.827987+00:00", "filter_res": null, "project_id": "0c3dba2f-4999-4586-a5ad-84188e1bb1fe", "updated_at": "2026-09-15T15:10:21.550468+00:00", "building_id": "2ae1d9e1-ffa7-42f0-b35f-776e39307060", "scenario_id": "0c3dba2f-4999-4586-a5ad-84188e1bb1fe", "tabula_type": null, "const_tabula": null, "building_name": "BUI-0023", "number_of_floors": null, "const_period_census": null, "envelope_efficiency": "low"}}, {"type" : "Feature", "id" : "2def6e9c-542e-4bb0-85a1-74ff82321676", "geometry" : {"type":"Polygon","coordinates":[[[7.6604192,45.0629999],[7.6603183,45.0630354],[7.6597501,45.0622427],[7.6598857,45.062195],[7.6600239,45.0621464],[7.660135,45.0621051],[7.6601946,45.0621942],[7.6603001,45.0623411],[7.6603694,45.0624374],[7.660468,45.0625737],[7.6605345,45.0626653],[7.6606309,45.0628004],[7.6603491,45.0629013],[7.6604192,45.0629999]]]}, "properties" : {"pv": null, "lod": 0, "area": 3025.7286411100085, "type": "non-residential", "height": 8.35, "volume": null, "z_value": 248.63, "fmu_file": "frassinetto", "n_family": 0, "n_people": 0, "const_year": null, "created_at": "2026-09-15T15:10:16.95528+00:00", "filter_res": null, "project_id": "0c3dba2f-4999-4586-a5ad-84188e1bb1fe", "updated_at": "2026-09-15T15:10:21.560812+00:00", "building_id": "2def6e9c-542e-4bb0-85a1-74ff82321676", "scenario_id": "0c3dba2f-4999-4586-a5ad-84188e1bb1fe", "tabula_type": null, "const_tabula": null, "building_name": "BUI-0037", "number_of_floors": null, "const_period_census": null, "envelope_efficiency": "low"}}, {"type" : "Feature", "id" : "2eda3962-ae61-4b83-96b0-d58a74fea113", "geometry" : {"type":"Polygon","coordinates":[[[7.6607829,45.0622968],[7.6604514,45.0624091],[7.6603694,45.0624374],[7.6603001,45.0623411],[7.6603934,45.0623088],[7.6607167,45.0621993],[7.6607829,45.0622968]]]}, "properties" : {"pv": null, "lod": 0, "area": 435.7682119890571, "type": "non-residential", "height": 16.55, "volume": null, "z_value": 248.17, "fmu_file": "frassinetto", "n_family": 0, "n_people": 0, "const_year": null, "created_at": "2026-09-15T15:10:16.892236+00:00", "filter_res": null, "project_id": "0c3dba2f-4999-4586-a5ad-84188e1bb1fe", "updated_at": "2026-09-15T15:10:21.554855+00:00", "building_id": "2eda3962-ae61-4b83-96b0-d58a74fea113", "scenario_id": "0c3dba2f-4999-4586-a5ad-84188e1bb1fe", "tabula_type": null, "const_tabula": null, "building_name": "BUI-0029", "number_of_floors": null, "const_period_census": null, "envelope_efficiency": "low"}}, {"type" : "Feature", "id" : "3337461d-8ce6-4800-a72f-669f4cbd2c6d", "geometry" : {"type":"Polygon","coordinates":[[[7.6588174,45.0643975],[7.6589101,45.0643643],[7.6592457,45.0642444],[7.6593342,45.0642128],[7.6594213,45.0641807],[7.6596991,45.0640824],[7.6603343,45.0638553],[7.6604337,45.063994],[7.6604175,45.0639998],[7.6603888,45.06401],[7.6603085,45.0640387],[7.6599546,45.0641652],[7.6598004,45.0642196],[7.6596094,45.0642885],[7.6595841,45.064298],[7.6595302,45.0643169],[7.6595182,45.0643211],[7.6594675,45.0643392],[7.6594335,45.0643514],[7.6593472,45.0643822],[7.6592215,45.0644271],[7.6590645,45.0644832],[7.6590074,45.0645036],[7.6589132,45.0645353],[7.6588174,45.0643975]]]}, "properties" : {"pv": null, "lod": 0, "area": 2312.0637431903006, "type": "non-residential", "height": 24.6, "volume": null, "z_value": 249.85, "fmu_file": "frassinetto", "n_family": 0, "n_people": 0, "const_year": null, "created_at": "2026-09-15T15:10:16.499555+00:00", "filter_res": null, "project_id": "0c3dba2f-4999-4586-a5ad-84188e1bb1fe", "updated_at": "2026-09-15T15:10:21.535694+00:00", "building_id": "3337461d-8ce6-4800-a72f-669f4cbd2c6d", "scenario_id": "0c3dba2f-4999-4586-a5ad-84188e1bb1fe", "tabula_type": null, "const_tabula": null, "building_name": "BUI-0003", "number_of_floors": null, "const_period_census": null, "envelope_efficiency": "medium"}}, {"type" : "Feature", "id" : "37f031fe-4351-4118-8433-273d854836d1", "geometry" : {"type":"Polygon","coordinates":[[[7.656161,45.0633766],[7.6563965,45.0633703],[7.6566499,45.0632922],[7.656823,45.063214],[7.6569586,45.0630703],[7.656748,45.0627641],[7.6564215,45.0627351],[7.6562895,45.0627401],[7.656161,45.0633766]]]}, "properties" : {"pv": null, "lod": 0, "area": 3160.798478594334, "type": "residential", "height": 17.26, "volume": 54555.38174053821, "z_value": 250.52, "fmu_file": "frassinetto", "n_family": 196, "n_people": 490, "const_year": 2001, "created_at": "2026-09-15T15:10:17.339166+00:00", "filter_res": null, "project_id": "0c3dba2f-4999-4586-a5ad-84188e1bb1fe", "updated_at": "2026-09-15T15:10:21.586205+00:00", "building_id": "37f031fe-4351-4118-8433-273d854836d1", "scenario_id": "0c3dba2f-4999-4586-a5ad-84188e1bb1fe", "tabula_type": "IT.RES.TABULA_7", "const_tabula": "TABULA_7", "building_name": "BUI-0071", "number_of_floors": 5, "const_period_census": "E15", "envelope_efficiency": "high"}}, {"type" : "Feature", "id" : "3c927b3b-e8c2-4e7e-9477-1e863edfbd50", "geometry" : {"type":"Polygon","coordinates":[[[7.6569444,45.0628136],[7.6570921,45.0627617],[7.6571507,45.0628449],[7.657167,45.0628681],[7.6572042,45.062921],[7.6570589,45.0629735],[7.6569444,45.0628136]]]}, "properties" : {"pv": null, "lod": 0, "area": 256.3201290811592, "type": "residential", "height": 4.55, "volume": 1166.2565873192743, "z_value": 249.52, "fmu_file": "frassinetto", "n_family": 5, "n_people": 10, "const_year": 1978, "created_at": "2026-09-15T15:10:17.25892+00:00", "filter_res": null, "project_id": "0c3dba2f-4999-4586-a5ad-84188e1bb1fe", "updated_at": "2026-09-15T15:10:21.58109+00:00", "building_id": "3c927b3b-e8c2-4e7e-9477-1e863edfbd50", "scenario_id": "0c3dba2f-4999-4586-a5ad-84188e1bb1fe", "tabula_type": "IT.RES.TABULA_6", "const_tabula": "TABULA_6", "building_name": "BUI-0064", "number_of_floors": 1, "const_period_census": "E12", "envelope_efficiency": "low"}}, {"type" : "Feature", "id" : "39a6cc23-1141-4bdf-b216-fdf428d767d2", "geometry" : {"type":"Polygon","coordinates":[[[7.6613636,45.0629878],[7.6613184,45.062922],[7.6611934,45.0627439],[7.6611581,45.0626964],[7.6610817,45.0627204],[7.6611141,45.0627717],[7.6609876,45.0628161],[7.6609604,45.0627762],[7.6608196,45.0628258],[7.6608376,45.0628493],[7.6608483,45.0628657],[7.6609146,45.0629581],[7.660976,45.0630437],[7.6609901,45.0630615],[7.661002,45.0630774],[7.661146,45.0630262],[7.6611213,45.0629911],[7.661229,45.0629533],[7.6612766,45.0630195],[7.6613636,45.0629878]]]}, "properties" : {"pv": null, "lod": 0, "area": 890.0457391661669, "type": "non-residential", "height": 14.37, "volume": null, "z_value": 248.58, "fmu_file": "frassinetto", "n_family": 0, "n_people": 0, "const_year": null, "created_at": "2026-09-15T15:10:16.801085+00:00", "filter_res": null, "project_id": "0c3dba2f-4999-4586-a5ad-84188e1bb1fe", "updated_at": "2026-09-15T15:10:21.548989+00:00", "building_id": "39a6cc23-1141-4bdf-b216-fdf428d767d2", "scenario_id": "0c3dba2f-4999-4586-a5ad-84188e1bb1fe", "tabula_type": null, "const_tabula": null, "building_name": "BUI-0021", "number_of_floors": null, "const_period_census": null, "envelope_efficiency": "low"}}, {"type" : "Feature", "id" : "3c95be4a-8ba7-42f6-878a-b3f2dc381012", "geometry" : {"type":"Polygon","coordinates":[[[7.6583137,45.0662138],[7.6586041,45.0661121],[7.6581741,45.0654998],[7.6578571,45.0650485],[7.6577069,45.0651011],[7.6575667,45.0651502],[7.6578884,45.0656083],[7.6583137,45.0662138]]]}, "properties" : {"pv": null, "lod": 0, "area": 3366.8832585061796, "type": "non-residential", "height": 12.35, "volume": null, "z_value": 248.81, "fmu_file": "frassinetto", "n_family": 0, "n_people": 0, "const_year": null, "created_at": "2026-09-15T15:10:16.532659+00:00", "filter_res": null, "project_id": "0c3dba2f-4999-4586-a5ad-84188e1bb1fe", "updated_at": "2026-09-15T15:10:21.537188+00:00", "building_id": "3c95be4a-8ba7-42f6-878a-b3f2dc381012", "scenario_id": "0c3dba2f-4999-4586-a5ad-84188e1bb1fe", "tabula_type": null, "const_tabula": null, "building_name": "BUI-0005", "number_of_floors": null, "const_period_census": null, "envelope_efficiency": "medium"}}, {"type" : "Feature", "id" : "20416a3d-624b-480e-a15e-5d2aabdc3a04", "geometry" : {"type":"Polygon","coordinates":[[[7.6598188,45.0629348],[7.6600298,45.0628614],[7.6598004,45.0625321],[7.6597544,45.0625481],[7.6596229,45.0623594],[7.6594579,45.0624167],[7.6598188,45.0629348]]]}, "properties" : {"pv": null, "lod": 0, "area": 1093.5587510896412, "type": "non-residential", "height": 11.94, "volume": null, "z_value": 248.82, "fmu_file": "frassinetto", "n_family": 0, "n_people": 0, "const_year": null, "created_at": "2026-09-15T15:10:16.683232+00:00", "filter_res": null, "project_id": "0c3dba2f-4999-4586-a5ad-84188e1bb1fe", "updated_at": "2026-09-15T15:10:21.543952+00:00", "building_id": "20416a3d-624b-480e-a15e-5d2aabdc3a04", "scenario_id": "0c3dba2f-4999-4586-a5ad-84188e1bb1fe", "tabula_type": null, "const_tabula": null, "building_name": "BUI-0014", "number_of_floors": null, "const_period_census": null, "envelope_efficiency": "low"}}, {"type" : "Feature", "id" : "4429a00a-04ea-4cf1-848e-3fc5e9679c86", "geometry" : {"type":"Polygon","coordinates":[[[7.6572036,45.0635051],[7.6572105,45.0635344],[7.6577092,45.064237],[7.6580669,45.0647409],[7.6580999,45.0647629],[7.6581415,45.0647758],[7.6581867,45.0647779],[7.6582303,45.0647692],[7.6582673,45.0647506],[7.6582931,45.0647243],[7.658305,45.0646934],[7.6583013,45.0646615],[7.6574458,45.063452],[7.657417,45.0634304],[7.65738,45.0634162],[7.6573386,45.063411],[7.6572969,45.0634152],[7.6572592,45.0634284],[7.6572293,45.0634492],[7.6572101,45.0634757],[7.6572036,45.0635051]]]}, "properties" : {"pv": null, "lod": 0, "area": 3351.861549906421, "type": "non-residential", "height": 8.44, "volume": null, "z_value": 250.77, "fmu_file": "frassinetto", "n_family": 0, "n_people": 0, "const_year": null, "created_at": "2026-09-15T15:10:16.637608+00:00", "filter_res": null, "project_id": "0c3dba2f-4999-4586-a5ad-84188e1bb1fe", "updated_at": "2026-09-15T15:10:21.543222+00:00", "building_id": "4429a00a-04ea-4cf1-848e-3fc5e9679c86", "scenario_id": "0c3dba2f-4999-4586-a5ad-84188e1bb1fe", "tabula_type": null, "const_tabula": null, "building_name": "BUI-0013", "number_of_floors": null, "const_period_census": null, "envelope_efficiency": "low"}}, {"type" : "Feature", "id" : "498f1c8d-1c09-49a3-897e-891787819b06", "geometry" : {"type":"Polygon","coordinates":[[[7.6625812,45.0637404],[7.6625686,45.0637218],[7.662556,45.0637031],[7.6625516,45.0636816],[7.6625601,45.0636588],[7.6625878,45.0636419],[7.6626225,45.0636354],[7.6626587,45.0636408],[7.6626855,45.0636569],[7.6626984,45.0636753],[7.6627113,45.0636937],[7.6625812,45.0637404]]]}, "properties" : {"pv": null, "lod": 0, "area": 93.95162309753121, "type": "non-residential", "height": 16.76, "volume": null, "z_value": 247.1, "fmu_file": "frassinetto", "n_family": 0, "n_people": 0, "const_year": null, "created_at": "2026-09-15T15:10:17.24037+00:00", "filter_res": null, "project_id": "0c3dba2f-4999-4586-a5ad-84188e1bb1fe", "updated_at": "2026-09-15T15:10:21.57895+00:00", "building_id": "498f1c8d-1c09-49a3-897e-891787819b06", "scenario_id": "0c3dba2f-4999-4586-a5ad-84188e1bb1fe", "tabula_type": null, "const_tabula": null, "building_name": "BUI-0061", "number_of_floors": null, "const_period_census": null, "envelope_efficiency": "high"}}, {"type" : "Feature", "id" : "6c5aafdf-2bbc-4e8b-a026-f068f08faa65", "geometry" : {"type":"Polygon","coordinates":[[[7.6598929,45.0610108],[7.6601744,45.061412],[7.6602027,45.0614538],[7.6602979,45.0615874],[7.6603137,45.0616099],[7.6603544,45.0616705],[7.6604012,45.061738],[7.6604618,45.0618275],[7.6605538,45.0619639],[7.6606138,45.0620518],[7.6607167,45.0621993],[7.6607829,45.0622968],[7.66088,45.0624338],[7.6609424,45.0625267],[7.6610533,45.0626841],[7.6610817,45.0627204],[7.6611581,45.0626964],[7.6611465,45.06268],[7.661112,45.0626311],[7.6609686,45.0624278],[7.6608535,45.0622645],[7.6604195,45.0616475],[7.6603612,45.0615651],[7.6599578,45.060988],[7.6598929,45.0610108]]]}, "properties" : {"pv": null, "lod": 0, "area": 1291.7050515222102, "type": "non-residential", "height": 13.07, "volume": null, "z_value": 247.92, "fmu_file": "frassinetto", "n_family": 0, "n_people": 0, "const_year": null, "created_at": "2026-09-15T15:10:16.881696+00:00", "filter_res": null, "project_id": "0c3dba2f-4999-4586-a5ad-84188e1bb1fe", "updated_at": "2026-09-15T15:10:21.553354+00:00", "building_id": "6c5aafdf-2bbc-4e8b-a026-f068f08faa65", "scenario_id": "0c3dba2f-4999-4586-a5ad-84188e1bb1fe", "tabula_type": null, "const_tabula": null, "building_name": "BUI-0027", "number_of_floors": null, "const_period_census": null, "envelope_efficiency": "high"}}, {"type" : "Feature", "id" : "6c679e94-337a-4bac-a999-2ba68f29a86e", "geometry" : {"type":"Polygon","coordinates":[[[7.6610983,45.0621994],[7.6610099,45.0620761],[7.6613575,45.0619521],[7.6618647,45.0617837],[7.6619498,45.0618954],[7.6615625,45.0620259],[7.6617713,45.0623169],[7.6621537,45.0621858],[7.662227,45.062293],[7.6620675,45.0623496],[7.6618357,45.0624299],[7.6618112,45.0623958],[7.6616787,45.0624433],[7.6615367,45.0622325],[7.6614285,45.0620814],[7.6610983,45.0621994]]]}, "properties" : {"pv": null, "lod": 0, "area": 2115.877563205144, "type": "non-residential", "height": 22.66, "volume": null, "z_value": 247.41, "fmu_file": "frassinetto", "n_family": 0, "n_people": 0, "const_year": null, "created_at": "2026-09-15T15:10:16.703188+00:00", "filter_res": null, "project_id": "0c3dba2f-4999-4586-a5ad-84188e1bb1fe", "updated_at": "2026-09-15T15:10:21.545423+00:00", "building_id": "6c679e94-337a-4bac-a999-2ba68f29a86e", "scenario_id": "0c3dba2f-4999-4586-a5ad-84188e1bb1fe", "tabula_type": null, "const_tabula": null, "building_name": "BUI-0016", "number_of_floors": null, "const_period_census": null, "envelope_efficiency": "medium"}}, {"type" : "Feature", "id" : "72e266c1-6538-4c53-b8d8-2ef9c856e54d", "geometry" : {"type":"Polygon","coordinates":[[[7.6612565,45.0633949],[7.6613479,45.0635239],[7.6612681,45.0635519],[7.6611773,45.0634227],[7.6612565,45.0633949]]]}, "properties" : {"pv": null, "lod": 0, "area": 112.02187561148605, "type": "non-residential", "height": 12.53, "volume": null, "z_value": 248.18, "fmu_file": "frassinetto", "n_family": 0, "n_people": 0, "const_year": null, "created_at": "2026-09-15T15:10:17.075204+00:00", "filter_res": null, "project_id": "0c3dba2f-4999-4586-a5ad-84188e1bb1fe", "updated_at": "2026-09-15T15:10:21.567653+00:00", "building_id": "72e266c1-6538-4c53-b8d8-2ef9c856e54d", "scenario_id": "0c3dba2f-4999-4586-a5ad-84188e1bb1fe", "tabula_type": null, "const_tabula": null, "building_name": "BUI-0046", "number_of_floors": null, "const_period_census": null, "envelope_efficiency": "low"}}, {"type" : "Feature", "id" : "73403444-e78a-491d-b512-9c2fd8407bac", "geometry" : {"type":"Polygon","coordinates":[[[7.6618751,45.0643874],[7.6616831,45.0641146],[7.6617528,45.0640901],[7.6617943,45.0640752],[7.661988,45.0643461],[7.6618751,45.0643874]]]}, "properties" : {"pv": null, "lod": 0, "area": 334.451339599231, "type": "non-residential", "height": 20.75, "volume": null, "z_value": 247.82, "fmu_file": "frassinetto", "n_family": 0, "n_people": 0, "const_year": null, "created_at": "2026-09-15T15:10:17.149947+00:00", "filter_res": null, "project_id": "0c3dba2f-4999-4586-a5ad-84188e1bb1fe", "updated_at": "2026-09-15T15:10:21.571433+00:00", "building_id": "73403444-e78a-491d-b512-9c2fd8407bac", "scenario_id": "0c3dba2f-4999-4586-a5ad-84188e1bb1fe", "tabula_type": null, "const_tabula": null, "building_name": "BUI-0051", "number_of_floors": null, "const_period_census": null, "envelope_efficiency": "medium"}}, {"type" : "Feature", "id" : "75d7fcf0-a070-46bc-aa70-5ee1d7407710", "geometry" : {"type":"Polygon","coordinates":[[[7.660135,45.0621051],[7.6600239,45.0621464],[7.6598857,45.062195],[7.6597501,45.0622427],[7.6595903,45.0620273],[7.6599869,45.0618858],[7.6600455,45.0619719],[7.660135,45.0621051]]]}, "properties" : {"pv": null, "lod": 0, "area": 934.0374457638145, "type": "non-residential", "height": 15.26, "volume": null, "z_value": 248.56, "fmu_file": "frassinetto", "n_family": 0, "n_people": 0, "const_year": null, "created_at": "2026-09-15T15:10:16.919136+00:00", "filter_res": null, "project_id": "0c3dba2f-4999-4586-a5ad-84188e1bb1fe", "updated_at": "2026-09-15T15:10:21.556998+00:00", "building_id": "75d7fcf0-a070-46bc-aa70-5ee1d7407710", "scenario_id": "0c3dba2f-4999-4586-a5ad-84188e1bb1fe", "tabula_type": null, "const_tabula": null, "building_name": "BUI-0032", "number_of_floors": null, "const_period_census": null, "envelope_efficiency": "low"}}, {"type" : "Feature", "id" : "764ce652-21ce-4038-a0e1-7982ee3887c9", "geometry" : {"type":"Polygon","coordinates":[[[7.6609,45.0625416],[7.6609151,45.0625631],[7.6609913,45.062671],[7.660849,45.0627211],[7.6607777,45.0627462],[7.6607663,45.0627502],[7.6608196,45.0628258],[7.6609604,45.0627762],[7.6609268,45.0627286],[7.6610533,45.0626841],[7.6609424,45.0625267],[7.6609,45.0625416]]]}, "properties" : {"pv": null, "lod": 0, "area": 214.68419361221672, "type": "non-residential", "height": 3, "volume": null, "z_value": 248.45, "fmu_file": "frassinetto", "n_family": 0, "n_people": 0, "const_year": null, "created_at": "2026-09-15T15:10:16.976758+00:00", "filter_res": null, "project_id": "0c3dba2f-4999-4586-a5ad-84188e1bb1fe", "updated_at": "2026-09-15T15:10:21.562396+00:00", "building_id": "764ce652-21ce-4038-a0e1-7982ee3887c9", "scenario_id": "0c3dba2f-4999-4586-a5ad-84188e1bb1fe", "tabula_type": null, "const_tabula": null, "building_name": "BUI-0039", "number_of_floors": null, "const_period_census": null, "envelope_efficiency": "low"}}, {"type" : "Feature", "id" : "4f00678c-51dd-4863-ba70-8aaa2da34d8e", "geometry" : {"type":"Polygon","coordinates":[[[7.6595366,45.0611439],[7.6595032,45.0610994],[7.6594525,45.0610322],[7.6587003,45.0613141],[7.6587651,45.0613988],[7.6588776,45.0613564],[7.6588901,45.0613729],[7.6589256,45.0614198],[7.6589329,45.0614295],[7.6591236,45.0613576],[7.6591688,45.0613405],[7.6595706,45.061189],[7.6595366,45.0611439]]]}, "properties" : {"pv": null, "lod": 0, "area": 1235.3617617608604, "type": "non-residential", "height": 13.22, "volume": null, "z_value": 248.94, "fmu_file": "frassinetto", "n_family": 0, "n_people": 0, "const_year": null, "created_at": "2026-09-15T15:10:16.862527+00:00", "filter_res": null, "project_id": "0c3dba2f-4999-4586-a5ad-84188e1bb1fe", "updated_at": "2026-09-15T15:10:21.552623+00:00", "building_id": "4f00678c-51dd-4863-ba70-8aaa2da34d8e", "scenario_id": "0c3dba2f-4999-4586-a5ad-84188e1bb1fe", "tabula_type": null, "const_tabula": null, "building_name": "BUI-0026", "number_of_floors": null, "const_period_census": null, "envelope_efficiency": "high"}}, {"type" : "Feature", "id" : "513d89d2-de38-43c5-94a1-b9d06b70e7dc", "geometry" : {"type":"Polygon","coordinates":[[[7.6609424,45.0625267],[7.6609,45.0625416],[7.6606087,45.0626389],[7.6605345,45.0626653],[7.660468,45.0625737],[7.6605493,45.0625465],[7.66088,45.0624338],[7.6609424,45.0625267]]]}, "properties" : {"pv": null, "lod": 0, "area": 407.4451415777459, "type": "non-residential", "height": 15.97, "volume": null, "z_value": 248.25, "fmu_file": "frassinetto", "n_family": 0, "n_people": 0, "const_year": null, "created_at": "2026-09-15T15:10:16.886512+00:00", "filter_res": null, "project_id": "0c3dba2f-4999-4586-a5ad-84188e1bb1fe", "updated_at": "2026-09-15T15:10:21.554092+00:00", "building_id": "513d89d2-de38-43c5-94a1-b9d06b70e7dc", "scenario_id": "0c3dba2f-4999-4586-a5ad-84188e1bb1fe", "tabula_type": null, "const_tabula": null, "building_name": "BUI-0028", "number_of_floors": null, "const_period_census": null, "envelope_efficiency": "low"}}, {"type" : "Feature", "id" : "53ed8d7d-14c3-4d1a-8906-f7c00acd0e78", "geometry" : {"type":"Polygon","coordinates":[[[7.6607383,45.0637404],[7.6606451,45.0636113],[7.6611773,45.0634227],[7.6612681,45.0635519],[7.6611582,45.0635901],[7.6610896,45.0634959],[7.6607462,45.0636199],[7.660814,45.0637136],[7.6607383,45.0637404]]]}, "properties" : {"pv": null, "lod": 0, "area": 393.74413620140706, "type": "non-residential", "height": 3, "volume": null, "z_value": 248.4, "fmu_file": "frassinetto", "n_family": 0, "n_people": 0, "const_year": null, "created_at": "2026-09-15T15:10:17.069548+00:00", "filter_res": null, "project_id": "0c3dba2f-4999-4586-a5ad-84188e1bb1fe", "updated_at": "2026-09-15T15:10:21.566922+00:00", "building_id": "53ed8d7d-14c3-4d1a-8906-f7c00acd0e78", "scenario_id": "0c3dba2f-4999-4586-a5ad-84188e1bb1fe", "tabula_type": null, "const_tabula": null, "building_name": "BUI-0045", "number_of_floors": null, "const_period_census": null, "envelope_efficiency": "medium"}}, {"type" : "Feature", "id" : "5a4ba16b-5bfe-47f4-849f-799d508b8d42", "geometry" : {"type":"Polygon","coordinates":[[[7.6573023,45.0628606],[7.6575004,45.0631403],[7.657508,45.063151],[7.6576305,45.0631078],[7.6581297,45.0629314],[7.6580369,45.0627997],[7.6579692,45.0627049],[7.657924,45.062641],[7.6573023,45.0628606]]]}, "properties" : {"pv": null, "lod": 0, "area": 1975.2635086053167, "type": "non-residential", "height": 3, "volume": null, "z_value": 249.61, "fmu_file": "frassinetto", "n_family": 0, "n_people": 0, "const_year": null, "created_at": "2026-09-15T15:10:17.263834+00:00", "filter_res": null, "project_id": "0c3dba2f-4999-4586-a5ad-84188e1bb1fe", "updated_at": "2026-09-15T15:10:21.581867+00:00", "building_id": "5a4ba16b-5bfe-47f4-849f-799d508b8d42", "scenario_id": "0c3dba2f-4999-4586-a5ad-84188e1bb1fe", "tabula_type": null, "const_tabula": null, "building_name": "BUI-0065", "number_of_floors": null, "const_period_census": null, "envelope_efficiency": "medium"}}, {"type" : "Feature", "id" : "6b48a8a0-e215-46af-8b18-8baa48d75893", "geometry" : {"type":"Polygon","coordinates":[[[7.6577047,45.0632489],[7.6574926,45.0633224],[7.6584479,45.064698],[7.6586603,45.0646244],[7.6577047,45.0632489]]]}, "properties" : {"pv": null, "lod": 0, "area": 3168.8693667623475, "type": "non-residential", "height": 6.61, "volume": null, "z_value": 250.77, "fmu_file": "frassinetto", "n_family": 0, "n_people": 0, "const_year": null, "created_at": "2026-09-15T15:10:17.184759+00:00", "filter_res": null, "project_id": "0c3dba2f-4999-4586-a5ad-84188e1bb1fe", "updated_at": "2026-09-15T15:10:21.575284+00:00", "building_id": "6b48a8a0-e215-46af-8b18-8baa48d75893", "scenario_id": "0c3dba2f-4999-4586-a5ad-84188e1bb1fe", "tabula_type": null, "const_tabula": null, "building_name": "BUI-0056", "number_of_floors": null, "const_period_census": null, "envelope_efficiency": "high"}}, {"type" : "Feature", "id" : "6c3f8f2b-b7a6-4817-b444-664f3a347b0b", "geometry" : {"type":"Polygon","coordinates":[[[7.6601883,45.0616542],[7.6592224,45.0619969],[7.6590559,45.0620557],[7.6588471,45.0617549],[7.6587705,45.0616445],[7.6598994,45.0612467],[7.6600478,45.0614563],[7.660077,45.0614978],[7.6601883,45.0616542]]]}, "properties" : {"pv": null, "lod": 0, "area": 5053.660624878007, "type": "non-residential", "height": 12.32, "volume": null, "z_value": 248.53, "fmu_file": "frassinetto", "n_family": 0, "n_people": 0, "const_year": null, "created_at": "2026-09-15T15:10:16.937376+00:00", "filter_res": null, "project_id": "0c3dba2f-4999-4586-a5ad-84188e1bb1fe", "updated_at": "2026-09-15T15:10:21.558545+00:00", "building_id": "6c3f8f2b-b7a6-4817-b444-664f3a347b0b", "scenario_id": "0c3dba2f-4999-4586-a5ad-84188e1bb1fe", "tabula_type": null, "const_tabula": null, "building_name": "BUI-0034", "number_of_floors": null, "const_period_census": null, "envelope_efficiency": "low"}}, {"type" : "Feature", "id" : "e2935c57-0c5d-44b6-b957-4e3052ce6694", "geometry" : {"type":"Polygon","coordinates":[[[7.6623037,45.0629138],[7.66227,45.0628726],[7.6623415,45.0628505],[7.6623719,45.0628917],[7.6623037,45.0629138]]]}, "properties" : {"pv": null, "lod": 0, "area": 31.372431365128435, "type": "non-residential", "height": 3.79, "volume": null, "z_value": 247.29, "fmu_file": "frassinetto", "n_family": 0, "n_people": 0, "const_year": null, "created_at": "2026-09-15T15:10:17.303303+00:00", "filter_res": null, "project_id": "0c3dba2f-4999-4586-a5ad-84188e1bb1fe", "updated_at": "2026-09-15T15:10:21.584005+00:00", "building_id": "e2935c57-0c5d-44b6-b957-4e3052ce6694", "scenario_id": "0c3dba2f-4999-4586-a5ad-84188e1bb1fe", "tabula_type": null, "const_tabula": null, "building_name": "BUI-0068", "number_of_floors": null, "const_period_census": null, "envelope_efficiency": "low"}}, {"type" : "Feature", "id" : "e2e1db17-bb20-4a2f-bb77-b17cd218f4fd", "geometry" : {"type":"Polygon","coordinates":[[[7.6627901,45.0633959],[7.6629617,45.0636364],[7.6629124,45.063654],[7.6628936,45.0636278],[7.6627113,45.0636937],[7.6625812,45.0637404],[7.6624208,45.0638009],[7.6624447,45.0638342],[7.6621814,45.0639283],[7.6621221,45.0638456],[7.6621693,45.0638286],[7.6621233,45.0637645],[7.662175,45.063746],[7.6621537,45.0637163],[7.6624624,45.0636058],[7.6624108,45.063534],[7.6618649,45.0637293],[7.6621381,45.0641101],[7.6622825,45.0640584],[7.6622617,45.0640295],[7.6622921,45.0640186],[7.6623205,45.0640085],[7.6625611,45.0643444],[7.6628479,45.0642452],[7.6627577,45.0641119],[7.6627255,45.0641228],[7.6626231,45.064156],[7.6625359,45.0640343],[7.6625868,45.0640173],[7.6625345,45.063939],[7.6626812,45.0638896],[7.6627091,45.0639319],[7.6627555,45.0639163],[7.6627658,45.0639327],[7.6628671,45.0638975],[7.662857,45.0638823],[7.6628888,45.0638716],[7.6628605,45.0638301],[7.6630141,45.0637775],[7.6630675,45.0638566],[7.6631341,45.0638343],[7.663235,45.0639737],[7.6633109,45.0640836],[7.6634628,45.0640324],[7.6633567,45.0638818],[7.6633123,45.0638975],[7.6631695,45.0636948],[7.6630079,45.0634657],[7.6630535,45.0634497],[7.6629703,45.0633317],[7.6627901,45.0633959]]]}, "properties" : {"pv": null, "lod": 0, "area": 4134.752967936057, "type": "non-residential", "height": 24.91, "volume": null, "z_value": 247.21, "fmu_file": "frassinetto", "n_family": 0, "n_people": 0, "const_year": null, "created_at": "2026-09-15T15:10:16.558572+00:00", "filter_res": null, "project_id": "0c3dba2f-4999-4586-a5ad-84188e1bb1fe", "updated_at": "2026-09-15T15:10:21.538713+00:00", "building_id": "e2e1db17-bb20-4a2f-bb77-b17cd218f4fd", "scenario_id": "0c3dba2f-4999-4586-a5ad-84188e1bb1fe", "tabula_type": null, "const_tabula": null, "building_name": "BUI-0007", "number_of_floors": null, "const_period_census": null, "envelope_efficiency": "low"}}, {"type" : "Feature", "id" : "faaad6c1-84a7-40c9-addf-faac2b9b31ad", "geometry" : {"type":"Polygon","coordinates":[[[7.6586603,45.0646244],[7.6589132,45.0645353],[7.6588174,45.0643975],[7.6585131,45.0639599],[7.658542,45.0639499],[7.6584739,45.063852],[7.6584058,45.0637541],[7.6583798,45.0637631],[7.6580641,45.063309],[7.6579616,45.0631617],[7.6577047,45.0632489],[7.6586603,45.0646244]]]}, "properties" : {"pv": null, "lod": 0, "area": 3859.570302811178, "type": "non-residential", "height": 22.84, "volume": null, "z_value": 250.71, "fmu_file": "frassinetto", "n_family": 0, "n_people": 0, "const_year": null, "created_at": "2026-09-15T15:10:16.573682+00:00", "filter_res": null, "project_id": "0c3dba2f-4999-4586-a5ad-84188e1bb1fe", "updated_at": "2026-09-15T15:10:21.539458+00:00", "building_id": "faaad6c1-84a7-40c9-addf-faac2b9b31ad", "scenario_id": "0c3dba2f-4999-4586-a5ad-84188e1bb1fe", "tabula_type": null, "const_tabula": null, "building_name": "BUI-0008", "number_of_floors": null, "const_period_census": null, "envelope_efficiency": "high"}}, {"type" : "Feature", "id" : "7698c228-bf70-4ba6-8a92-73d8da571c08", "geometry" : {"type":"Polygon","coordinates":[[[7.661673,45.0632501],[7.6615158,45.0633063],[7.6613056,45.0633809],[7.6612326,45.0632785],[7.6613959,45.0632204],[7.6615997,45.0631476],[7.661673,45.0632501]]]}, "properties" : {"pv": null, "lod": 0, "area": 413.0542770055047, "type": "non-residential", "height": 12.88, "volume": null, "z_value": 248.13, "fmu_file": "frassinetto", "n_family": 0, "n_people": 0, "const_year": null, "created_at": "2026-09-15T15:10:16.993584+00:00", "filter_res": null, "project_id": "0c3dba2f-4999-4586-a5ad-84188e1bb1fe", "updated_at": "2026-09-15T15:10:21.56461+00:00", "building_id": "7698c228-bf70-4ba6-8a92-73d8da571c08", "scenario_id": "0c3dba2f-4999-4586-a5ad-84188e1bb1fe", "tabula_type": null, "const_tabula": null, "building_name": "BUI-0042", "number_of_floors": null, "const_period_census": null, "envelope_efficiency": "low"}}, {"type" : "Feature", "id" : "79f380b8-5803-46dc-a97a-2c1531e01a33", "geometry" : {"type":"Polygon","coordinates":[[[7.6606138,45.0620518],[7.6602895,45.0621624],[7.6601946,45.0621942],[7.660135,45.0621051],[7.6602266,45.0620743],[7.6605538,45.0619639],[7.6606138,45.0620518]]]}, "properties" : {"pv": null, "lod": 0, "area": 399.23630495736336, "type": "non-residential", "height": 15.08, "volume": null, "z_value": 248.09, "fmu_file": "frassinetto", "n_family": 0, "n_people": 0, "const_year": null, "created_at": "2026-09-15T15:10:16.897666+00:00", "filter_res": null, "project_id": "0c3dba2f-4999-4586-a5ad-84188e1bb1fe", "updated_at": "2026-09-15T15:10:21.555567+00:00", "building_id": "79f380b8-5803-46dc-a97a-2c1531e01a33", "scenario_id": "0c3dba2f-4999-4586-a5ad-84188e1bb1fe", "tabula_type": null, "const_tabula": null, "building_name": "BUI-0030", "number_of_floors": null, "const_period_census": null, "envelope_efficiency": "medium"}}, {"type" : "Feature", "id" : "7b0290c9-9da7-4fde-b5c3-ff06ac32768e", "geometry" : {"type":"Polygon","coordinates":[[[7.6591417,45.0646021],[7.6592877,45.0648067],[7.6595794,45.0647029],[7.6595128,45.064608],[7.6594333,45.0644983],[7.6592796,45.0645539],[7.6591417,45.0646021]]]}, "properties" : {"pv": null, "lod": 0, "area": 654.5397251370781, "type": "non-residential", "height": 10.07, "volume": null, "z_value": 249.24, "fmu_file": "frassinetto", "n_family": 0, "n_people": 0, "const_year": null, "created_at": "2026-09-15T15:10:16.585735+00:00", "filter_res": null, "project_id": "0c3dba2f-4999-4586-a5ad-84188e1bb1fe", "updated_at": "2026-09-15T15:10:21.540202+00:00", "building_id": "7b0290c9-9da7-4fde-b5c3-ff06ac32768e", "scenario_id": "0c3dba2f-4999-4586-a5ad-84188e1bb1fe", "tabula_type": null, "const_tabula": null, "building_name": "BUI-0009", "number_of_floors": null, "const_period_census": null, "envelope_efficiency": "high"}}, {"type" : "Feature", "id" : "7bf9627c-826a-4637-84ef-cdb3cb2f372e", "geometry" : {"type":"Polygon","coordinates":[[[7.6566431,45.0646152],[7.6566133,45.0645747],[7.6565797,45.064529],[7.6564998,45.0645578],[7.6565321,45.0646009],[7.6565637,45.064644],[7.6566431,45.0646152]]]}, "properties" : {"pv": null, "lod": 0, "area": 75.96220304154781, "type": "non-residential", "height": 9.06, "volume": null, "z_value": 249.67, "fmu_file": "frassinetto", "n_family": 0, "n_people": 0, "const_year": null, "created_at": "2026-09-15T15:10:17.21369+00:00", "filter_res": null, "project_id": "0c3dba2f-4999-4586-a5ad-84188e1bb1fe", "updated_at": "2026-09-15T15:10:21.577431+00:00", "building_id": "7bf9627c-826a-4637-84ef-cdb3cb2f372e", "scenario_id": "0c3dba2f-4999-4586-a5ad-84188e1bb1fe", "tabula_type": null, "const_tabula": null, "building_name": "BUI-0059", "number_of_floors": null, "const_period_census": null, "envelope_efficiency": "low"}}, {"type" : "Feature", "id" : "7d651cc6-1322-4b08-a9f8-344dbe7b2276", "geometry" : {"type":"Polygon","coordinates":[[[7.6588493,45.0660265],[7.6588495,45.0660264],[7.6588726,45.0660183],[7.6588652,45.0660076],[7.6588791,45.0660028],[7.6588958,45.065997],[7.6589025,45.0660067],[7.658925,45.065999],[7.6588644,45.0659129],[7.658789,45.0659393],[7.6588203,45.0659844],[7.6588493,45.0660265]]]}, "properties" : {"pv": null, "lod": 0, "area": 68.04339167625136, "type": "non-residential", "height": 11.32, "volume": null, "z_value": 245.45, "fmu_file": "frassinetto", "n_family": 0, "n_people": 0, "const_year": null, "created_at": "2026-09-15T15:10:16.603438+00:00", "filter_res": null, "project_id": "0c3dba2f-4999-4586-a5ad-84188e1bb1fe", "updated_at": "2026-09-15T15:10:21.541721+00:00", "building_id": "7d651cc6-1322-4b08-a9f8-344dbe7b2276", "scenario_id": "0c3dba2f-4999-4586-a5ad-84188e1bb1fe", "tabula_type": null, "const_tabula": null, "building_name": "BUI-0011", "number_of_floors": null, "const_period_census": null, "envelope_efficiency": "low"}}, {"type" : "Feature", "id" : "825167cc-178c-4cc8-8ac1-ebc8fd626ae4", "geometry" : {"type":"Polygon","coordinates":[[[7.6622966,45.0626799],[7.6621893,45.0625171],[7.6620675,45.0623496],[7.662227,45.062293],[7.6622936,45.0623854],[7.6623476,45.0624606],[7.6624055,45.0625399],[7.6624673,45.0626235],[7.6622966,45.0626799]]]}, "properties" : {"pv": null, "lod": 0, "area": 583.1004055731538, "type": "non-residential", "height": 11.32, "volume": null, "z_value": 246.96, "fmu_file": "frassinetto", "n_family": 0, "n_people": 0, "const_year": null, "created_at": "2026-09-15T15:10:16.981748+00:00", "filter_res": null, "project_id": "0c3dba2f-4999-4586-a5ad-84188e1bb1fe", "updated_at": "2026-09-15T15:10:21.563154+00:00", "building_id": "825167cc-178c-4cc8-8ac1-ebc8fd626ae4", "scenario_id": "0c3dba2f-4999-4586-a5ad-84188e1bb1fe", "tabula_type": null, "const_tabula": null, "building_name": "BUI-0040", "number_of_floors": null, "const_period_census": null, "envelope_efficiency": "low"}}, {"type" : "Feature", "id" : "8294c129-fbdb-4cdc-822c-92636c93b65b", "geometry" : {"type":"Polygon","coordinates":[[[7.6570747,45.0627399],[7.6569031,45.0628013],[7.6567984,45.0626553],[7.65697,45.0625939],[7.6570747,45.0627399]]]}, "properties" : {"pv": null, "lod": 0, "area": 275.4164608077056, "type": "non-residential", "height": 3.93, "volume": null, "z_value": 249.55, "fmu_file": "frassinetto", "n_family": 0, "n_people": 0, "const_year": null, "created_at": "2026-09-15T15:10:17.253608+00:00", "filter_res": null, "project_id": "0c3dba2f-4999-4586-a5ad-84188e1bb1fe", "updated_at": "2026-09-15T15:10:21.580366+00:00", "building_id": "8294c129-fbdb-4cdc-822c-92636c93b65b", "scenario_id": "0c3dba2f-4999-4586-a5ad-84188e1bb1fe", "tabula_type": null, "const_tabula": null, "building_name": "BUI-0063", "number_of_floors": null, "const_period_census": null, "envelope_efficiency": "high"}}, {"type" : "Feature", "id" : "82b62644-4ddc-4329-8c32-07570d86160a", "geometry" : {"type":"Polygon","coordinates":[[[7.6602266,45.0620743],[7.660137,45.0619412],[7.6600455,45.0619719],[7.660135,45.0621051],[7.6602266,45.0620743]]]}, "properties" : {"pv": null, "lod": 0, "area": 130.73239590421107, "type": "non-residential", "height": 4.91, "volume": null, "z_value": 248.27, "fmu_file": "frassinetto", "n_family": 0, "n_people": 0, "const_year": null, "created_at": "2026-09-15T15:10:16.931358+00:00", "filter_res": null, "project_id": "0c3dba2f-4999-4586-a5ad-84188e1bb1fe", "updated_at": "2026-09-15T15:10:21.55775+00:00", "building_id": "82b62644-4ddc-4329-8c32-07570d86160a", "scenario_id": "0c3dba2f-4999-4586-a5ad-84188e1bb1fe", "tabula_type": null, "const_tabula": null, "building_name": "BUI-0033", "number_of_floors": null, "const_period_census": null, "envelope_efficiency": "high"}}, {"type" : "Feature", "id" : "87b1a486-5293-4479-8b08-92cfb81d4f78", "geometry" : {"type":"Polygon","coordinates":[[[7.6604514,45.0624091],[7.6605493,45.0625465],[7.660468,45.0625737],[7.6603694,45.0624374],[7.6604514,45.0624091]]]}, "properties" : {"pv": null, "lod": 0, "area": 121.6041264233352, "type": "non-residential", "height": 9.08, "volume": null, "z_value": 248.33, "fmu_file": "frassinetto", "n_family": 0, "n_people": 0, "const_year": null, "created_at": "2026-09-15T15:10:16.948841+00:00", "filter_res": null, "project_id": "0c3dba2f-4999-4586-a5ad-84188e1bb1fe", "updated_at": "2026-09-15T15:10:21.560088+00:00", "building_id": "87b1a486-5293-4479-8b08-92cfb81d4f78", "scenario_id": "0c3dba2f-4999-4586-a5ad-84188e1bb1fe", "tabula_type": null, "const_tabula": null, "building_name": "BUI-0036", "number_of_floors": null, "const_period_census": null, "envelope_efficiency": "low"}}, {"type" : "Feature", "id" : "896045b1-bc30-47e9-8317-c5345c1b0f6d", "geometry" : {"type":"Polygon","coordinates":[[[7.6611862,45.0632963],[7.6612565,45.0633949],[7.6611773,45.0634227],[7.6606451,45.0636113],[7.6605743,45.063511],[7.6610648,45.0633395],[7.6611862,45.0632963]]]}, "properties" : {"pv": null, "lod": 0, "area": 662.9381897642828, "type": "non-residential", "height": 15.88, "volume": null, "z_value": 248.47, "fmu_file": "frassinetto", "n_family": 0, "n_people": 0, "const_year": null, "created_at": "2026-09-15T15:10:17.051916+00:00", "filter_res": null, "project_id": "0c3dba2f-4999-4586-a5ad-84188e1bb1fe", "updated_at": "2026-09-15T15:10:21.565393+00:00", "building_id": "896045b1-bc30-47e9-8317-c5345c1b0f6d", "scenario_id": "0c3dba2f-4999-4586-a5ad-84188e1bb1fe", "tabula_type": null, "const_tabula": null, "building_name": "BUI-0043", "number_of_floors": null, "const_period_census": null, "envelope_efficiency": "high"}}, {"type" : "Feature", "id" : "8e6e9094-f68a-478d-93d2-074727caf543", "geometry" : {"type":"Polygon","coordinates":[[[7.6618601,45.0640519],[7.6617943,45.0640752],[7.6617528,45.0640901],[7.6616733,45.0639792],[7.6615283,45.064031],[7.6614439,45.0639131],[7.6615895,45.0638611],[7.6615082,45.0637476],[7.6614163,45.0637804],[7.6613349,45.0636668],[7.6614268,45.063634],[7.6613479,45.0635239],[7.6612565,45.0633949],[7.6611862,45.0632963],[7.6610648,45.0633395],[7.660972,45.0632093],[7.6610709,45.0631741],[7.6610206,45.0631035],[7.661002,45.0630774],[7.661146,45.0630262],[7.6611682,45.0630573],[7.6611347,45.0630692],[7.6611874,45.0631433],[7.6612059,45.063169],[7.6611646,45.0631837],[7.6612326,45.0632785],[7.6613056,45.0633809],[7.6613911,45.0635018],[7.6614728,45.0636179],[7.6617099,45.0639514],[7.6617728,45.0639291],[7.6618601,45.0640519]]]}, "properties" : {"pv": null, "lod": 0, "area": 1171.0546236585735, "type": "non-residential", "height": 8.37, "volume": null, "z_value": 248.13, "fmu_file": "frassinetto", "n_family": 0, "n_people": 0, "const_year": null, "created_at": "2026-09-15T15:10:17.120956+00:00", "filter_res": null, "project_id": "0c3dba2f-4999-4586-a5ad-84188e1bb1fe", "updated_at": "2026-09-15T15:10:21.569926+00:00", "building_id": "8e6e9094-f68a-478d-93d2-074727caf543", "scenario_id": "0c3dba2f-4999-4586-a5ad-84188e1bb1fe", "tabula_type": null, "const_tabula": null, "building_name": "BUI-0049", "number_of_floors": null, "const_period_census": null, "envelope_efficiency": "low"}}, {"type" : "Feature", "id" : "906252ea-6f7a-48f5-b6ba-812ede09f789", "geometry" : {"type":"Polygon","coordinates":[[[7.6603934,45.0623088],[7.6602895,45.0621624],[7.6601946,45.0621942],[7.6603001,45.0623411],[7.6603934,45.0623088]]]}, "properties" : {"pv": null, "lod": 0, "area": 150.08203047169562, "type": "non-residential", "height": 12.29, "volume": null, "z_value": 248.36, "fmu_file": "frassinetto", "n_family": 0, "n_people": 0, "const_year": null, "created_at": "2026-09-15T15:10:16.943142+00:00", "filter_res": null, "project_id": "0c3dba2f-4999-4586-a5ad-84188e1bb1fe", "updated_at": "2026-09-15T15:10:21.559272+00:00", "building_id": "906252ea-6f7a-48f5-b6ba-812ede09f789", "scenario_id": "0c3dba2f-4999-4586-a5ad-84188e1bb1fe", "tabula_type": null, "const_tabula": null, "building_name": "BUI-0035", "number_of_floors": null, "const_period_census": null, "envelope_efficiency": "high"}}, {"type" : "Feature", "id" : "a2abce58-4760-4006-b85d-92ecda8dab91", "geometry" : {"type":"Polygon","coordinates":[[[7.6615997,45.0631476],[7.6613959,45.0632204],[7.6613125,45.0631],[7.6611874,45.0631433],[7.6611347,45.0630692],[7.6611682,45.0630573],[7.6612766,45.0630195],[7.6613636,45.0629878],[7.6619271,45.0627887],[7.6619767,45.0628559],[7.6620713,45.0629842],[7.6615997,45.0631476]]]}, "properties" : {"pv": null, "lod": 0, "area": 1535.367420657479, "type": "non-residential", "height": 7.3, "volume": null, "z_value": 247.9, "fmu_file": "frassinetto", "n_family": 0, "n_people": 0, "const_year": null, "created_at": "2026-09-15T15:10:16.789444+00:00", "filter_res": null, "project_id": "0c3dba2f-4999-4586-a5ad-84188e1bb1fe", "updated_at": "2026-09-15T15:10:21.548281+00:00", "building_id": "a2abce58-4760-4006-b85d-92ecda8dab91", "scenario_id": "0c3dba2f-4999-4586-a5ad-84188e1bb1fe", "tabula_type": null, "const_tabula": null, "building_name": "BUI-0020", "number_of_floors": null, "const_period_census": null, "envelope_efficiency": "high"}}, {"type" : "Feature", "id" : "a3f040ca-035b-4e93-8259-4b7beacc5f05", "geometry" : {"type":"Polygon","coordinates":[[[7.66065,45.0634844],[7.6605594,45.0633531],[7.6604831,45.0633796],[7.6605743,45.063511],[7.66065,45.0634844]]]}, "properties" : {"pv": null, "lod": 0, "area": 108.44270385623135, "type": "non-residential", "height": 4.77, "volume": null, "z_value": 248.83, "fmu_file": "frassinetto", "n_family": 0, "n_people": 0, "const_year": null, "created_at": "2026-09-15T15:10:16.98618+00:00", "filter_res": null, "project_id": "0c3dba2f-4999-4586-a5ad-84188e1bb1fe", "updated_at": "2026-09-15T15:10:21.563888+00:00", "building_id": "a3f040ca-035b-4e93-8259-4b7beacc5f05", "scenario_id": "0c3dba2f-4999-4586-a5ad-84188e1bb1fe", "tabula_type": null, "const_tabula": null, "building_name": "BUI-0041", "number_of_floors": null, "const_period_census": null, "envelope_efficiency": "medium"}}, {"type" : "Feature", "id" : "a7a53074-8483-4abb-8849-b9fcb6602ed5", "geometry" : {"type":"Polygon","coordinates":[[[7.6619767,45.0628559],[7.6620713,45.0629842],[7.6620932,45.0630151],[7.6622236,45.0631991],[7.6619054,45.0633116],[7.6619421,45.0633634],[7.6619847,45.0634235],[7.6628446,45.0631193],[7.6627654,45.0630076],[7.6623598,45.0631511],[7.6623322,45.0631122],[7.662158,45.0628666],[7.662543,45.0627303],[7.6624673,45.0626235],[7.6622966,45.0626799],[7.6620766,45.062769],[7.6621038,45.0628028],[7.6621084,45.0628092],[7.6619767,45.0628559]]]}, "properties" : {"pv": null, "lod": 0, "area": 2020.3709803406894, "type": "non-residential", "height": 22.69, "volume": null, "z_value": 247.41, "fmu_file": "frassinetto", "n_family": 0, "n_people": 0, "const_year": null, "created_at": "2026-09-15T15:10:16.712937+00:00", "filter_res": null, "project_id": "0c3dba2f-4999-4586-a5ad-84188e1bb1fe", "updated_at": "2026-09-15T15:10:21.54615+00:00", "building_id": "a7a53074-8483-4abb-8849-b9fcb6602ed5", "scenario_id": "0c3dba2f-4999-4586-a5ad-84188e1bb1fe", "tabula_type": null, "const_tabula": null, "building_name": "BUI-0017", "number_of_floors": null, "const_period_census": null, "envelope_efficiency": "medium"}}, {"type" : "Feature", "id" : "a95979fd-6297-4fbc-9669-08e13ed772fc", "geometry" : {"type":"Polygon","coordinates":[[[7.660982,45.0639407],[7.6608952,45.063819],[7.6608142,45.0638476],[7.6609009,45.0639701],[7.660982,45.0639407]]]}, "properties" : {"pv": null, "lod": 0, "area": 108.58144355849419, "type": "non-residential", "height": 5.14, "volume": null, "z_value": 248.48, "fmu_file": "frassinetto", "n_family": 0, "n_people": 0, "const_year": null, "created_at": "2026-09-15T15:10:17.177445+00:00", "filter_res": null, "project_id": "0c3dba2f-4999-4586-a5ad-84188e1bb1fe", "updated_at": "2026-09-15T15:10:21.574582+00:00", "building_id": "a95979fd-6297-4fbc-9669-08e13ed772fc", "scenario_id": "0c3dba2f-4999-4586-a5ad-84188e1bb1fe", "tabula_type": null, "const_tabula": null, "building_name": "BUI-0055", "number_of_floors": null, "const_period_census": null, "envelope_efficiency": "high"}}, {"type" : "Feature", "id" : "aa8b382f-0a0c-4fd4-a528-be6ba4d6ef9d", "geometry" : {"type":"Polygon","coordinates":[[[7.6596275,45.0611105],[7.6598929,45.0610108],[7.6599578,45.060988],[7.6603612,45.0615651],[7.6604195,45.0616475],[7.6608535,45.0622645],[7.6609677,45.0622238],[7.6610037,45.062211],[7.660928,45.0621052],[7.6600141,45.0608255],[7.659851,45.0608859],[7.6598682,45.06091],[7.659851,45.0609161],[7.659561,45.0610192],[7.6595945,45.0610657],[7.6596275,45.0611105]]]}, "properties" : {"pv": null, "lod": 0, "area": 2517.8929386522495, "type": "non-residential", "height": 3, "volume": null, "z_value": 247.83, "fmu_file": "frassinetto", "n_family": 0, "n_people": 0, "const_year": null, "created_at": "2026-09-15T15:10:16.851154+00:00", "filter_res": null, "project_id": "0c3dba2f-4999-4586-a5ad-84188e1bb1fe", "updated_at": "2026-09-15T15:10:21.551187+00:00", "building_id": "aa8b382f-0a0c-4fd4-a528-be6ba4d6ef9d", "scenario_id": "0c3dba2f-4999-4586-a5ad-84188e1bb1fe", "tabula_type": null, "const_tabula": null, "building_name": "BUI-0024", "number_of_floors": null, "const_period_census": null, "envelope_efficiency": "high"}}, {"type" : "Feature", "id" : "aed7e20c-9235-42fa-a62d-2b514bcdeb0b", "geometry" : {"type":"Polygon","coordinates":[[[7.6620932,45.0630151],[7.6618225,45.0631117],[7.6618399,45.0631361],[7.6616886,45.06319],[7.6618387,45.0634],[7.6619421,45.0633634],[7.6619054,45.0633116],[7.6622236,45.0631991],[7.6620932,45.0630151]]]}, "properties" : {"pv": null, "lod": 0, "area": 865.8268180131155, "type": "non-residential", "height": 6.99, "volume": null, "z_value": 247.68, "fmu_file": "frassinetto", "n_family": 0, "n_people": 0, "const_year": null, "created_at": "2026-09-15T15:10:16.746031+00:00", "filter_res": null, "project_id": "0c3dba2f-4999-4586-a5ad-84188e1bb1fe", "updated_at": "2026-09-15T15:10:21.546859+00:00", "building_id": "aed7e20c-9235-42fa-a62d-2b514bcdeb0b", "scenario_id": "0c3dba2f-4999-4586-a5ad-84188e1bb1fe", "tabula_type": null, "const_tabula": null, "building_name": "BUI-0018", "number_of_floors": null, "const_period_census": null, "envelope_efficiency": "high"}}, {"type" : "Feature", "id" : "b15269a5-88ec-401a-acbb-6368df14267f", "geometry" : {"type":"Polygon","coordinates":[[[7.6565637,45.064644],[7.6564208,45.0646955],[7.6566759,45.0650489],[7.6568347,45.0649917],[7.6570597,45.0649111],[7.6568054,45.064557],[7.6566431,45.0646152],[7.6565637,45.064644]]]}, "properties" : {"pv": null, "lod": 0, "area": 1496.7533388883644, "type": "non-residential", "height": 8.67, "volume": null, "z_value": 249.87, "fmu_file": "frassinetto", "n_family": 0, "n_people": 0, "const_year": null, "created_at": "2026-09-15T15:10:17.20745+00:00", "filter_res": null, "project_id": "0c3dba2f-4999-4586-a5ad-84188e1bb1fe", "updated_at": "2026-09-15T15:10:21.576679+00:00", "building_id": "b15269a5-88ec-401a-acbb-6368df14267f", "scenario_id": "0c3dba2f-4999-4586-a5ad-84188e1bb1fe", "tabula_type": null, "const_tabula": null, "building_name": "BUI-0058", "number_of_floors": null, "const_period_census": null, "envelope_efficiency": "high"}}, {"type" : "Feature", "id" : "c021c5eb-fc59-4574-9baf-be05dea819f5", "geometry" : {"type":"Polygon","coordinates":[[[7.6612798,45.0647618],[7.6615081,45.0646813],[7.661487,45.064653],[7.6614132,45.0645486],[7.6614659,45.0645302],[7.6613554,45.0643808],[7.6612844,45.0642843],[7.6612683,45.0642624],[7.6611418,45.0643051],[7.6610671,45.0641997],[7.6609815,45.0640809],[7.6609009,45.0639701],[7.6608142,45.0638476],[7.6607383,45.0637404],[7.6606451,45.0636113],[7.6605743,45.063511],[7.6604831,45.0633796],[7.6604141,45.0632786],[7.6602712,45.063325],[7.6610148,45.0643843],[7.6612798,45.0647618]]]}, "properties" : {"pv": null, "lod": 0, "area": 2736.7010657912115, "type": "non-residential", "height": 4.96, "volume": null, "z_value": 248.62, "fmu_file": "frassinetto", "n_family": 0, "n_people": 0, "const_year": null, "created_at": "2026-09-15T15:10:17.16575+00:00", "filter_res": null, "project_id": "0c3dba2f-4999-4586-a5ad-84188e1bb1fe", "updated_at": "2026-09-15T15:10:21.57299+00:00", "building_id": "c021c5eb-fc59-4574-9baf-be05dea819f5", "scenario_id": "0c3dba2f-4999-4586-a5ad-84188e1bb1fe", "tabula_type": null, "const_tabula": null, "building_name": "BUI-0053", "number_of_floors": null, "const_period_census": null, "envelope_efficiency": "high"}}, {"type" : "Feature", "id" : "c133083f-608a-4167-981c-df305556962b", "geometry" : {"type":"Polygon","coordinates":[[[7.6580641,45.063309],[7.6579616,45.0631617],[7.6581162,45.0631091],[7.6584871,45.0629814],[7.658523,45.062969],[7.6585623,45.0629555],[7.658674,45.0629167],[7.6587597,45.062887],[7.6588872,45.0628428],[7.6589473,45.0628219],[7.6590732,45.0627783],[7.6592915,45.0627026],[7.6594742,45.06264],[7.6594899,45.0626362],[7.6595872,45.0627802],[7.6595461,45.0627945],[7.6594492,45.0628281],[7.6590908,45.0629526],[7.6589494,45.063001],[7.6587246,45.0630791],[7.6586812,45.0630942],[7.6586662,45.0631],[7.658591,45.0631261],[7.6585007,45.0631574],[7.6581415,45.0632821],[7.6580641,45.063309]]]}, "properties" : {"pv": null, "lod": 0, "area": 2408.51974482294, "type": "non-residential", "height": 27.34, "volume": null, "z_value": 249.95, "fmu_file": "frassinetto", "n_family": 0, "n_people": 0, "const_year": null, "created_at": "2026-09-15T15:10:16.331968+00:00", "filter_res": null, "project_id": "0c3dba2f-4999-4586-a5ad-84188e1bb1fe", "updated_at": "2026-09-15T15:10:21.534126+00:00", "building_id": "c133083f-608a-4167-981c-df305556962b", "scenario_id": "0c3dba2f-4999-4586-a5ad-84188e1bb1fe", "tabula_type": null, "const_tabula": null, "building_name": "BUI-0001", "number_of_floors": null, "const_period_census": null, "envelope_efficiency": "high"}}, {"type" : "Feature", "id" : "c8870d2e-1bc7-4971-93eb-193a771e1d66", "geometry" : {"type":"Polygon","coordinates":[[[7.6607663,45.0627502],[7.6607015,45.0626545],[7.6607714,45.0626322],[7.6607612,45.0626162],[7.6609151,45.0625631],[7.6609913,45.062671],[7.660849,45.0627211],[7.6607777,45.0627462],[7.6607663,45.0627502]]]}, "properties" : {"pv": null, "lod": 0, "area": 253.9571789624139, "type": "non-residential", "height": 12.7, "volume": null, "z_value": 248.33, "fmu_file": "frassinetto", "n_family": 0, "n_people": 0, "const_year": null, "created_at": "2026-09-15T15:10:17.272599+00:00", "filter_res": null, "project_id": "0c3dba2f-4999-4586-a5ad-84188e1bb1fe", "updated_at": "2026-09-15T15:10:21.582587+00:00", "building_id": "c8870d2e-1bc7-4971-93eb-193a771e1d66", "scenario_id": "0c3dba2f-4999-4586-a5ad-84188e1bb1fe", "tabula_type": null, "const_tabula": null, "building_name": "BUI-0066", "number_of_floors": null, "const_period_census": null, "envelope_efficiency": "low"}}, {"type" : "Feature", "id" : "cfe93157-4528-4fbb-8251-cb9b1fafa54c", "geometry" : {"type":"Polygon","coordinates":[[[7.6576841,45.0664937],[7.6580342,45.0663726],[7.657957,45.0662584],[7.6579144,45.0661954],[7.6578494,45.0660737],[7.6575665,45.0661326],[7.6575627,45.066122],[7.6575584,45.0661098],[7.6578207,45.0660301],[7.6577556,45.0659078],[7.6577095,45.0659133],[7.6576914,45.065883],[7.6576705,45.0658478],[7.6576804,45.0658418],[7.6575585,45.0657201],[7.6572934,45.0658372],[7.6573253,45.0658708],[7.6572949,45.065882],[7.6572604,45.0658946],[7.6576841,45.0664937]]]}, "properties" : {"pv": null, "lod": 0, "area": 2422.486852296929, "type": "non-residential", "height": 7.83, "volume": null, "z_value": 249.67, "fmu_file": "frassinetto", "n_family": 0, "n_people": 0, "const_year": null, "created_at": "2026-09-15T15:10:17.320128+00:00", "filter_res": null, "project_id": "0c3dba2f-4999-4586-a5ad-84188e1bb1fe", "updated_at": "2026-09-15T15:10:21.584715+00:00", "building_id": "cfe93157-4528-4fbb-8251-cb9b1fafa54c", "scenario_id": "0c3dba2f-4999-4586-a5ad-84188e1bb1fe", "tabula_type": null, "const_tabula": null, "building_name": "BUI-0069", "number_of_floors": null, "const_period_census": null, "envelope_efficiency": "low"}}, {"type" : "Feature", "id" : "d8149060-6700-40d8-80e2-0fb277bfda6b", "geometry" : {"type":"Polygon","coordinates":[[[7.6604337,45.063994],[7.6605049,45.0639662],[7.6601758,45.0634962],[7.6602299,45.063477],[7.6601283,45.0633347],[7.6601956,45.0633112],[7.6601851,45.0632804],[7.6601713,45.0632849],[7.6601523,45.0632594],[7.6601268,45.0632252],[7.6601485,45.0632174],[7.6600707,45.062933],[7.6597858,45.0629737],[7.6595611,45.0626147],[7.6594899,45.0626362],[7.6595872,45.0627802],[7.6599464,45.0632995],[7.6603343,45.0638553],[7.6604337,45.063994]]]}, "properties" : {"pv": null, "lod": 0, "area": 1789.6604173868823, "type": "non-residential", "height": 29.76, "volume": null, "z_value": 248.95, "fmu_file": "frassinetto", "n_family": 0, "n_people": 0, "const_year": null, "created_at": "2026-09-15T15:10:16.475068+00:00", "filter_res": null, "project_id": "0c3dba2f-4999-4586-a5ad-84188e1bb1fe", "updated_at": "2026-09-15T15:10:21.534937+00:00", "building_id": "d8149060-6700-40d8-80e2-0fb277bfda6b", "scenario_id": "0c3dba2f-4999-4586-a5ad-84188e1bb1fe", "tabula_type": null, "const_tabula": null, "building_name": "BUI-0002", "number_of_floors": null, "const_period_census": null, "envelope_efficiency": "low"}}, {"type" : "Feature", "id" : "d9590075-9238-4c0d-b415-f2e6992f7a56", "geometry" : {"type":"Polygon","coordinates":[[[7.6567604,45.0651675],[7.6566876,45.0650599],[7.6567722,45.0650314],[7.656845,45.065139],[7.6567604,45.0651675]]]}, "properties" : {"pv": null, "lod": 0, "area": 97.78267062752722, "type": "non-residential", "height": 11.16, "volume": null, "z_value": 250.16, "fmu_file": "frassinetto", "n_family": 0, "n_people": 0, "const_year": null, "created_at": "2026-09-15T15:10:16.549821+00:00", "filter_res": null, "project_id": "0c3dba2f-4999-4586-a5ad-84188e1bb1fe", "updated_at": "2026-09-15T15:10:21.537941+00:00", "building_id": "d9590075-9238-4c0d-b415-f2e6992f7a56", "scenario_id": "0c3dba2f-4999-4586-a5ad-84188e1bb1fe", "tabula_type": null, "const_tabula": null, "building_name": "BUI-0006", "number_of_floors": null, "const_period_census": null, "envelope_efficiency": "low"}}, {"type" : "Feature", "id" : "d9ea11dd-dbac-4d4d-8e20-8866fe8c9fd8", "geometry" : {"type":"Polygon","coordinates":[[[7.6620683,45.0627572],[7.6621038,45.0628028],[7.6621084,45.0628092],[7.6619767,45.0628559],[7.6619271,45.0627887],[7.6618194,45.062639],[7.6617191,45.0624995],[7.6616787,45.0624433],[7.6618112,45.0623958],[7.6618357,45.0624299],[7.6618512,45.0624514],[7.6619532,45.0625934],[7.6620683,45.0627572]]]}, "properties" : {"pv": null, "lod": 0, "area": 599.3491811163024, "type": "non-residential", "height": 27.6, "volume": null, "z_value": 247.77, "fmu_file": "frassinetto", "n_family": 0, "n_people": 0, "const_year": null, "created_at": "2026-09-15T15:10:16.690355+00:00", "filter_res": null, "project_id": "0c3dba2f-4999-4586-a5ad-84188e1bb1fe", "updated_at": "2026-09-15T15:10:21.544678+00:00", "building_id": "d9ea11dd-dbac-4d4d-8e20-8866fe8c9fd8", "scenario_id": "0c3dba2f-4999-4586-a5ad-84188e1bb1fe", "tabula_type": null, "const_tabula": null, "building_name": "BUI-0015", "number_of_floors": null, "const_period_census": null, "envelope_efficiency": "high"}}, {"type" : "Feature", "id" : "da2cbc7f-a3fa-46d5-9a83-3db872150a64", "geometry" : {"type":"Polygon","coordinates":[[[7.6610617,45.0640518],[7.6609815,45.0640809],[7.6609009,45.0639701],[7.660982,45.0639407],[7.6614163,45.0637804],[7.6615082,45.0637476],[7.6615895,45.0638611],[7.6614439,45.0639131],[7.6610617,45.0640518]]]}, "properties" : {"pv": null, "lod": 0, "area": 752.3884124178808, "type": "non-residential", "height": 16.92, "volume": null, "z_value": 248.19, "fmu_file": "frassinetto", "n_family": 0, "n_people": 0, "const_year": null, "created_at": "2026-09-15T15:10:17.088953+00:00", "filter_res": null, "project_id": "0c3dba2f-4999-4586-a5ad-84188e1bb1fe", "updated_at": "2026-09-15T15:10:21.568374+00:00", "building_id": "da2cbc7f-a3fa-46d5-9a83-3db872150a64", "scenario_id": "0c3dba2f-4999-4586-a5ad-84188e1bb1fe", "tabula_type": null, "const_tabula": null, "building_name": "BUI-0047", "number_of_floors": null, "const_period_census": null, "envelope_efficiency": "medium"}}, {"type" : "Feature", "id" : "de4fc1cb-caf7-42a7-864a-8d3ad7bc5f33", "geometry" : {"type":"Polygon","coordinates":[[[7.6614659,45.0645302],[7.6613554,45.0643808],[7.6615534,45.0643129],[7.6615403,45.0642945],[7.6614671,45.0641923],[7.6616831,45.0641146],[7.6618751,45.0643874],[7.6614659,45.0645302]]]}, "properties" : {"pv": null, "lod": 0, "area": 961.0237483000365, "type": "non-residential", "height": 4.54, "volume": null, "z_value": 248.05, "fmu_file": "frassinetto", "n_family": 0, "n_people": 0, "const_year": null, "created_at": "2026-09-15T15:10:17.156629+00:00", "filter_res": null, "project_id": "0c3dba2f-4999-4586-a5ad-84188e1bb1fe", "updated_at": "2026-09-15T15:10:21.572157+00:00", "building_id": "de4fc1cb-caf7-42a7-864a-8d3ad7bc5f33", "scenario_id": "0c3dba2f-4999-4586-a5ad-84188e1bb1fe", "tabula_type": null, "const_tabula": null, "building_name": "BUI-0052", "number_of_floors": null, "const_period_census": null, "envelope_efficiency": "low"}}, {"type" : "Feature", "id" : "e3cb3fda-d511-4fb4-88cf-fdfe740d444c", "geometry" : {"type":"Polygon","coordinates":[[[7.6633109,45.0640836],[7.663235,45.0639737],[7.6631194,45.0640127],[7.6630833,45.0639593],[7.662702,45.0640881],[7.6627255,45.0641228],[7.6627577,45.0641119],[7.6628479,45.0642452],[7.6630394,45.0641784],[7.663229,45.0641122],[7.6633109,45.0640836]]]}, "properties" : {"pv": null, "lod": 0, "area": 774.806972937141, "type": "non-residential", "height": 10.88, "volume": null, "z_value": 246.99, "fmu_file": "frassinetto", "n_family": 0, "n_people": 0, "const_year": null, "created_at": "2026-09-15T15:10:17.219386+00:00", "filter_res": null, "project_id": "0c3dba2f-4999-4586-a5ad-84188e1bb1fe", "updated_at": "2026-09-15T15:10:21.578204+00:00", "building_id": "e3cb3fda-d511-4fb4-88cf-fdfe740d444c", "scenario_id": "0c3dba2f-4999-4586-a5ad-84188e1bb1fe", "tabula_type": null, "const_tabula": null, "building_name": "BUI-0060", "number_of_floors": null, "const_period_census": null, "envelope_efficiency": "high"}}, {"type" : "Feature", "id" : "e3d13da3-874e-4839-8b49-8e461b80c604", "geometry" : {"type":"Polygon","coordinates":[[[7.6611471,45.0641714],[7.6610671,45.0641997],[7.6611418,45.0643051],[7.6612683,45.0642624],[7.6614671,45.0641923],[7.6616831,45.0641146],[7.6617528,45.0640901],[7.6616733,45.0639792],[7.6615283,45.064031],[7.6611471,45.0641714]]]}, "properties" : {"pv": null, "lod": 0, "area": 728.796487494692, "type": "non-residential", "height": 16.73, "volume": null, "z_value": 248.23, "fmu_file": "frassinetto", "n_family": 0, "n_people": 0, "const_year": null, "created_at": "2026-09-15T15:10:17.114352+00:00", "filter_res": null, "project_id": "0c3dba2f-4999-4586-a5ad-84188e1bb1fe", "updated_at": "2026-09-15T15:10:21.569117+00:00", "building_id": "e3d13da3-874e-4839-8b49-8e461b80c604", "scenario_id": "0c3dba2f-4999-4586-a5ad-84188e1bb1fe", "tabula_type": null, "const_tabula": null, "building_name": "BUI-0048", "number_of_floors": null, "const_period_census": null, "envelope_efficiency": "low"}}, {"type" : "Feature", "id" : "e40318d6-512f-481c-8c7e-ca642374dee6", "geometry" : {"type":"Polygon","coordinates":[[[7.6611471,45.0641714],[7.6610617,45.0640518],[7.6609815,45.0640809],[7.6610671,45.0641997],[7.6611471,45.0641714]]]}, "properties" : {"pv": null, "lod": 0, "area": 104.99266268129693, "type": "non-residential", "height": 5.24, "volume": null, "z_value": 248.45, "fmu_file": "frassinetto", "n_family": 0, "n_people": 0, "const_year": null, "created_at": "2026-09-15T15:10:17.170979+00:00", "filter_res": null, "project_id": "0c3dba2f-4999-4586-a5ad-84188e1bb1fe", "updated_at": "2026-09-15T15:10:21.573823+00:00", "building_id": "e40318d6-512f-481c-8c7e-ca642374dee6", "scenario_id": "0c3dba2f-4999-4586-a5ad-84188e1bb1fe", "tabula_type": null, "const_tabula": null, "building_name": "BUI-0054", "number_of_floors": null, "const_period_census": null, "envelope_efficiency": "low"}}, {"type" : "Feature", "id" : "e6431c77-f283-4a25-9a71-b35a4f5b9415", "geometry" : {"type":"Polygon","coordinates":[[[7.6623369,45.0630038],[7.6625612,45.0629224],[7.662591,45.0629634],[7.6623667,45.0630448],[7.6623517,45.0630241],[7.6623369,45.0630038]]]}, "properties" : {"pv": null, "lod": 0, "area": 101.66438312667024, "type": "non-residential", "height": 3.94, "volume": null, "z_value": 247.18, "fmu_file": "frassinetto", "n_family": 0, "n_people": 0, "const_year": null, "created_at": "2026-09-15T15:10:17.326801+00:00", "filter_res": null, "project_id": "0c3dba2f-4999-4586-a5ad-84188e1bb1fe", "updated_at": "2026-09-15T15:10:21.585451+00:00", "building_id": "e6431c77-f283-4a25-9a71-b35a4f5b9415", "scenario_id": "0c3dba2f-4999-4586-a5ad-84188e1bb1fe", "tabula_type": null, "const_tabula": null, "building_name": "BUI-0070", "number_of_floors": null, "const_period_census": null, "envelope_efficiency": "low"}}, {"type" : "Feature", "id" : "ebb322bf-dc6a-4a07-9208-5a05d9d75806", "geometry" : {"type":"Polygon","coordinates":[[[7.661487,45.064653],[7.6614132,45.0645486],[7.6614659,45.0645302],[7.6618751,45.0643874],[7.661988,45.0643461],[7.6620791,45.0643139],[7.6621529,45.0644183],[7.6620815,45.0644435],[7.6619016,45.0645069],[7.661487,45.064653]]]}, "properties" : {"pv": null, "lod": 0, "area": 755.7123707913761, "type": "non-residential", "height": 20.87, "volume": null, "z_value": 247.97, "fmu_file": "frassinetto", "n_family": 0, "n_people": 0, "const_year": null, "created_at": "2026-09-15T15:10:17.139971+00:00", "filter_res": null, "project_id": "0c3dba2f-4999-4586-a5ad-84188e1bb1fe", "updated_at": "2026-09-15T15:10:21.570708+00:00", "building_id": "ebb322bf-dc6a-4a07-9208-5a05d9d75806", "scenario_id": "0c3dba2f-4999-4586-a5ad-84188e1bb1fe", "tabula_type": null, "const_tabula": null, "building_name": "BUI-0050", "number_of_floors": null, "const_period_census": null, "envelope_efficiency": "high"}}, {"type" : "Feature", "id" : "ec345f71-a072-4ae9-9d85-e28c00488acc", "geometry" : {"type":"Polygon","coordinates":[[[7.6605345,45.0626653],[7.6606309,45.0628004],[7.6607051,45.062774],[7.6606087,45.0626389],[7.6605345,45.0626653]]]}, "properties" : {"pv": null, "lod": 0, "area": 109.96086105885968, "type": "non-residential", "height": 4.92, "volume": null, "z_value": 248.5, "fmu_file": "frassinetto", "n_family": 0, "n_people": 0, "const_year": null, "created_at": "2026-09-15T15:10:16.961561+00:00", "filter_res": null, "project_id": "0c3dba2f-4999-4586-a5ad-84188e1bb1fe", "updated_at": "2026-09-15T15:10:21.561579+00:00", "building_id": "ec345f71-a072-4ae9-9d85-e28c00488acc", "scenario_id": "0c3dba2f-4999-4586-a5ad-84188e1bb1fe", "tabula_type": null, "const_tabula": null, "building_name": "BUI-0038", "number_of_floors": null, "const_period_census": null, "envelope_efficiency": "medium"}}, {"type" : "Feature", "id" : "f15999ef-a51d-4c92-98de-e373d927c385", "geometry" : {"type":"Polygon","coordinates":[[[7.6567538,45.0644671],[7.6565797,45.064529],[7.6564998,45.0645578],[7.6563612,45.0646072],[7.6560021,45.0640931],[7.6559796,45.0640611],[7.6560342,45.064042],[7.6561763,45.0639916],[7.6563667,45.0639239],[7.6567538,45.0644671]]]}, "properties" : {"pv": null, "lod": 0, "area": 2322.624670867434, "type": "non-residential", "height": 8.36, "volume": null, "z_value": 250.12, "fmu_file": "frassinetto", "n_family": 0, "n_people": 0, "const_year": null, "created_at": "2026-09-15T15:10:17.201043+00:00", "filter_res": null, "project_id": "0c3dba2f-4999-4586-a5ad-84188e1bb1fe", "updated_at": "2026-09-15T15:10:21.575981+00:00", "building_id": "f15999ef-a51d-4c92-98de-e373d927c385", "scenario_id": "0c3dba2f-4999-4586-a5ad-84188e1bb1fe", "tabula_type": null, "const_tabula": null, "building_name": "BUI-0057", "number_of_floors": null, "const_period_census": null, "envelope_efficiency": "high"}}, {"type" : "Feature", "id" : "fc005be8-c038-49ae-a6df-138e9867c264", "geometry" : {"type":"Polygon","coordinates":[[[7.6592042,45.0659005],[7.6584514,45.0648407],[7.6585215,45.0648158],[7.6586334,45.0647762],[7.6587325,45.0647412],[7.6587406,45.0647383],[7.6587504,45.0647348],[7.6587716,45.0647273],[7.6587941,45.0647193],[7.6588158,45.0647117],[7.6588353,45.0647047],[7.6588439,45.0647017],[7.6590044,45.0646449],[7.659075,45.0647443],[7.6591083,45.0647913],[7.6592092,45.0649334],[7.6592736,45.0649107],[7.6593519,45.064883],[7.6594239,45.0648575],[7.6595473,45.0648138],[7.6596209,45.0647878],[7.6598282,45.0650801],[7.6596318,45.0651496],[7.6594209,45.0652242],[7.6594857,45.0653157],[7.6595223,45.0653672],[7.6595325,45.0653817],[7.6597609,45.0657032],[7.6595133,45.065791],[7.6592042,45.0659005]]]}, "properties" : {"pv": null, "lod": 0, "area": 7752.131382869376, "type": "residential", "height": 10.06, "volume": 77986.44171166592, "z_value": 249.19, "fmu_file": "frassinetto", "n_family": 280, "n_people": 700, "const_year": 2018, "created_at": "2026-09-15T15:10:16.517373+00:00", "filter_res": null, "project_id": "0c3dba2f-4999-4586-a5ad-84188e1bb1fe", "updated_at": "2026-09-15T15:10:21.536446+00:00", "building_id": "fc005be8-c038-49ae-a6df-138e9867c264", "scenario_id": "0c3dba2f-4999-4586-a5ad-84188e1bb1fe", "tabula_type": "IT.RES.TABULA_7", "const_tabula": "TABULA_7", "building_name": "BUI-0004", "number_of_floors": 3, "const_period_census": "E16", "envelope_efficiency": "medium"}}]}
