<?xml version="1.0" encoding="UTF-8" standalone="yes"?>
<!-- Written by 3D City Database Importer/Exporter, version "5.5.3" -->
<!-- Chair of Geoinformatics, Technical University of Munich -->
<kml xmlns:xal="urn:oasis:names:tc:ciq:xsdschema:xAL:2.0" xmlns="http://www.opengis.net/kml/2.2" xmlns:atom="http://www.w3.org/2005/Atom" xmlns:gx="http://www.google.com/kml/ext/2.2">
  <Document>
    <name>alderaan</name>
    <open>true</open>
    <LookAt>
      <longitude>3.31409241224651</longitude>
      <latitude>47.97477584751226</latitude>
      <altitude>0.0</altitude>
      <heading>0.0</heading>
      <tilt>60.0</tilt>
      <range>970.0</range>
    </LookAt>
    <Folder>
      <name>alderaan_Tile_0_0</name>
      <NetworkLink>
        <name>Display as extruded</name>
        <Region>
          <LatLonAltBox>
            <north>47.97570354573889</north>
            <south>47.973848149285644</south>
            <east>3.315733963467029</east>
            <west>3.3124508610259906</west>
          </LatLonAltBox>
          <Lod>
            <minLodPixels>0.0</minLodPixels>
            <maxLodPixels>-1.0</maxLodPixels>
          </Lod>
        </Region>
        <Link>
          <href>Tiles/0/0/alderaan_Tile_0_0_extruded.kml</href>
          <viewRefreshMode>onRegion</viewRefreshMode>
          <viewFormat/>
        </Link>
      </NetworkLink>
    </Folder>
  </Document>
</kml>